{"epoch":1784710044,"count":18256,"objects":[{"id":"51653","name":"ONEWEB-0473","type":"PAYLOAD","l1":"1 51653U 22012AH  26202.46243960 -.00000424  00000-0 -12510-2 0  9996","l2":"2 51653  87.8814  29.4445 0001832  90.7940 269.3397 13.10371880213792"},{"id":"51654","name":"ONEWEB-0474","type":"PAYLOAD","l1":"1 51654U 22012AJ  26202.22488396 -.00000152  00000-0 -47307-3 0  9996","l2":"2 51654  87.8819  29.4794 0001668  98.0293 262.1024 13.10369607213752"},{"id":"51655","name":"ONEWEB-0475","type":"PAYLOAD","l1":"1 51655U 22012AK  26202.39362039  .00000080  00000-0  17315-3 0  9994","l2":"2 51655  87.9154 359.0684 0001603 115.6942 244.4355 13.17648745218195"},{"id":"54113","name":"ONEWEB-0490","type":"PAYLOAD","l1":"1 54113U 22138A   26202.55540454  .00000045  00000-0  80792-4 0  9993","l2":"2 54113  87.9192 298.1256 0002114 103.6934 256.4434 13.19725108181363"},{"id":"54114","name":"ONEWEB-0492","type":"PAYLOAD","l1":"1 54114U 22138B   26202.50485512  .00000032  00000-0  48455-4 0  9998","l2":"2 54114  87.9182 298.1349 0002264 101.9497 258.1890 13.19724142181369"},{"id":"54115","name":"ONEWEB-0495","type":"PAYLOAD","l1":"1 54115U 22138C   26202.25529397  .00000053  00000-0  10041-3 0  9993","l2":"2 54115  87.9184 298.1873 0002371 114.9517 245.1863 13.19726981181314"},{"id":"54116","name":"ONEWEB-0497","type":"PAYLOAD","l1":"1 54116U 22138D   26202.49537539  .00000104  00000-0  22801-3 0  9991","l2":"2 54116  87.9190 298.1336 0002067 102.7928 257.3436 13.19724538181338"},{"id":"54117","name":"ONEWEB-0499","type":"PAYLOAD","l1":"1 54117U 22138E   26202.32716776  .00000041  00000-0  69892-4 0  9998","l2":"2 54117  87.9185 298.1737 0002039 107.6989 252.4366 13.19724768181320"},{"id":"54118","name":"ONEWEB-0500","type":"PAYLOAD","l1":"1 54118U 22138F   26202.25372244  .00000035  00000-0  55240-4 0  9994","l2":"2 54118  87.9192 298.1849 0002054  97.6786 262.4580 13.19726440181321"},{"id":"54119","name":"ONEWEB-0501","type":"PAYLOAD","l1":"1 54119U 22138G   26202.51118705  .00000103  00000-0  22368-3 0  9994","l2":"2 54119  87.9191 298.1340 0002219 110.8369 249.3001 13.19726878181333"},{"id":"54120","name":"ONEWEB-0502","type":"PAYLOAD","l1":"1 54120U 22138H   26202.49695245  .00000087  00000-0  18494-3 0  9998","l2":"2 54120  87.9195 298.1258 0002005 107.7554 252.3798 13.19724690181350"},{"id":"54121","name":"ONEWEB-0503","type":"PAYLOAD","l1":"1 54121U 22138J   26202.56171916 -.00000026  00000-0 -96324-4 0  9995","l2":"2 54121  87.9195 298.1194 0001727 100.0374 260.0954 13.19726690181358"},{"id":"54122","name":"ONEWEB-0504","type":"PAYLOAD","l1":"1 54122U 22138K   26202.32163308  .00000051  00000-0  94547-4 0  9997","l2":"2 54122  87.9190 298.1714 0001972 107.8281 252.3067 13.19726749181338"},{"id":"54123","name":"ONEWEB-0505","type":"PAYLOAD","l1":"1 54123U 22138L   26202.54592093 -.00000006  00000-0 -46236-4 0  9993","l2":"2 54123  87.9189 298.1272 0002129 112.8763 247.2594 13.19723662181342"},{"id":"54124","name":"ONEWEB-0506","type":"PAYLOAD","l1":"1 54124U 22138M   26202.29321978  .00000078  00000-0  16259-3 0  9996","l2":"2 54124  87.9192 298.1756 0002134 109.2950 250.8414 13.19725869181306"},{"id":"54125","name":"ONEWEB-0507","type":"PAYLOAD","l1":"1 54125U 22138N   26202.31373107  .00000067  00000-0  13498-3 0  9991","l2":"2 54125  87.9182 298.1803 0002123 105.2243 254.9125 13.19726701181353"},{"id":"54126","name":"ONEWEB-0508","type":"PAYLOAD","l1":"1 54126U 22138P   26202.53803198  .00000113  00000-0  24881-3 0  9994","l2":"2 54126  87.9184 298.1352 0002344 108.4400 251.6988 13.19726627181369"},{"id":"54127","name":"ONEWEB-0509","type":"PAYLOAD","l1":"1 54127U 22138Q   26202.51275903  .00000115  00000-0  25559-3 0  9995","l2":"2 54127  87.9194 298.1334 0002087 104.8293 255.3072 13.19725338181335"},{"id":"54128","name":"ONEWEB-0510","type":"PAYLOAD","l1":"1 54128U 22138R   26202.60135208  .00000069  00000-0  13818-3 0  9992","l2":"2 54128  87.9178 267.5784 0001865  85.8039 274.3307 13.20771623183824"},{"id":"54129","name":"ONEWEB-0511","type":"PAYLOAD","l1":"1 54129U 22138S   26202.28214620  .00000035  00000-0  54686-4 0  9995","l2":"2 54129  87.9189 298.1805 0001789 105.1538 254.9792 13.19723749181336"},{"id":"54130","name":"ONEWEB-0512","type":"PAYLOAD","l1":"1 54130U 22138T   26202.50169288  .00000081  00000-0  16876-3 0  9990","l2":"2 54130  87.9183 298.1396 0002008 110.3728 249.7620 13.19724034181331"},{"id":"54131","name":"ONEWEB-0513","type":"PAYLOAD","l1":"1 54131U 22138U   26202.34162406  .00000016  00000-0  76855-5 0  9991","l2":"2 54131  87.9189 298.1114 0001860 127.2112 232.9192 13.20269982181229"},{"id":"54132","name":"ONEWEB-0514","type":"PAYLOAD","l1":"1 54132U 22138V   26202.29004416  .00000131  00000-0  29435-3 0  9990","l2":"2 54132  87.9189 298.1782 0001964  96.5629 263.5728 13.19724865181327"},{"id":"54133","name":"ONEWEB-0515","type":"PAYLOAD","l1":"1 54133U 22138W   26202.20910914  .00000106  00000-0  22882-3 0  9992","l2":"2 54133  87.9182 267.6527 0002645  81.5825 278.5608 13.20772290183791"},{"id":"54134","name":"ONEWEB-0516","type":"PAYLOAD","l1":"1 54134U 22138X   26202.49222290  .00000019  00000-0  15002-4 0  9997","l2":"2 54134  87.9186 298.1417 0002200 101.5397 258.5983 13.19724062181353"},{"id":"54135","name":"ONEWEB-0517","type":"PAYLOAD","l1":"1 54135U 22138Y   26202.32005453  .00000033  00000-0  50377-4 0  9990","l2":"2 54135  87.9189 298.1709 0001702 100.4341 259.6984 13.19726488181339"},{"id":"54136","name":"ONEWEB-0518","type":"PAYLOAD","l1":"1 54136U 22138Z   26202.56646499 -.00000027  00000-0 -99410-4 0  9994","l2":"2 54136  87.9182 298.1289 0002230  99.5311 260.6074 13.19724641181362"},{"id":"54137","name":"ONEWEB-0519","type":"PAYLOAD","l1":"1 54137U 22138AA  26202.28846213  .00000116  00000-0  25725-3 0  9994","l2":"2 54137  87.9190 298.1783 0001814  99.5666 260.5671 13.19724098181336"},{"id":"54138","name":"ONEWEB-0520","type":"PAYLOAD","l1":"1 54138U 22138AB  26202.32321698  .00000026  00000-0  31678-4 0  9990","l2":"2 54138  87.9193 298.1720 0002115 105.6579 254.4787 13.19724830181321"},{"id":"54139","name":"ONEWEB-0521","type":"PAYLOAD","l1":"1 54139U 22138AC  26202.28055577  .00000085  00000-0  18093-3 0  9996","l2":"2 54139  87.9195 298.1694 0001811  98.4134 261.7204 13.19724101181261"}]}