OBJECT_NAME,OBJECT_ID,EPOCH,MEAN_MOTION,ECCENTRICITY,INCLINATION,RA_OF_ASC_NODE,ARG_OF_PERICENTER,MEAN_ANOMALY,EPHEMERIS_TYPE,CLASSIFICATION_TYPE,NORAD_CAT_ID,ELEMENT_SET_NO,REV_AT_EPOCH,BSTAR,MEAN_MOTION_DOT,MEAN_MOTION_DDOT
ONEWEB-0473,2022-012AH,2026-07-21T11:05:54.781440,13.10371880,.00018323,87.8814,29.4445,90.7940,269.3397,0,U,51653,999,21379,-.12509507E-2,-.424E-5,0
ONEWEB-0474,2022-012AJ,2026-07-21T05:23:49.974144,13.10369607,.00016676,87.8819,29.4794,98.0293,262.1024,0,U,51654,999,21375,-.47307096E-3,-.152E-5,0
ONEWEB-0475,2022-012AK,2026-07-21T09:26:48.801696,13.17648745,.00016034,87.9154,359.0684,115.6942,244.4355,0,U,51655,999,21819,.17314937E-3,.8E-6,0
ONEWEB-0490,2022-138A,2026-07-21T13:19:46.952256,13.19725108,.00021136,87.9192,298.1256,103.6934,256.4434,0,U,54113,999,18136,.80791571E-4,.45E-6,0
ONEWEB-0492,2022-138B,2026-07-21T12:06:59.482368,13.19724142,.00022636,87.9182,298.1349,101.9497,258.1890,0,U,54114,999,18136,.48454888E-4,.32E-6,0
ONEWEB-0495,2022-138C,2026-07-21T06:07:37.399008,13.19726981,.00023713,87.9184,298.1873,114.9517,245.1863,0,U,54115,999,18131,.10040671E-3,.53E-6,0
ONEWEB-0497,2022-138D,2026-07-21T11:53:20.433696,13.19724538,.00020666,87.9190,298.1336,102.7928,257.3436,0,U,54116,999,18133,.22801119E-3,.104E-5,0
ONEWEB-0499,2022-138E,2026-07-21T07:51:07.294464,13.19724768,.00020387,87.9185,298.1737,107.6989,252.4366,0,U,54117,999,18132,.6989211E-4,.41E-6,0
ONEWEB-0500,2022-138F,2026-07-21T06:05:21.618816,13.19726440,.00020542,87.9192,298.1849,97.6786,262.4580,0,U,54118,999,18132,.55240011E-4,.35E-6,0
ONEWEB-0501,2022-138G,2026-07-21T12:16:06.561120,13.19726878,.00022186,87.9191,298.1340,110.8369,249.3001,0,U,54119,999,18133,.22367712E-3,.103E-5,0
ONEWEB-0502,2022-138H,2026-07-21T11:55:36.691680,13.19724690,.00020053,87.9195,298.1258,107.7554,252.3798,0,U,54120,999,18135,.1849396E-3,.87E-6,0
ONEWEB-0503,2022-138J,2026-07-21T13:28:52.535424,13.19726690,.00017274,87.9195,298.1194,100.0374,260.0954,0,U,54121,999,18135,-.96324305E-4,-.26E-6,0
ONEWEB-0504,2022-138K,2026-07-21T07:43:09.098112,13.19726749,.00019715,87.9190,298.1714,107.8281,252.3067,0,U,54122,999,18133,.94547237E-4,.51E-6,0
ONEWEB-0505,2022-138L,2026-07-21T13:06:07.568352,13.19723662,.00021287,87.9189,298.1272,112.8763,247.2594,0,U,54123,999,18134,-.46236229E-4,-.6E-7,0
ONEWEB-0506,2022-138M,2026-07-21T07:02:14.188992,13.19725869,.0002134,87.9192,298.1756,109.2950,250.8414,0,U,54124,999,18130,.16258657E-3,.78E-6,0
ONEWEB-0507,2022-138N,2026-07-21T07:31:46.364448,13.19726701,.0002123,87.9182,298.1803,105.2243,254.9125,0,U,54125,999,18135,.13497689E-3,.67E-6,0
ONEWEB-0508,2022-138P,2026-07-21T12:54:45.963072,13.19726627,.00023442,87.9184,298.1352,108.4400,251.6988,0,U,54126,999,18136,.24880742E-3,.113E-5,0
ONEWEB-0509,2022-138Q,2026-07-21T12:18:22.380192,13.19725338,.00020874,87.9194,298.1334,104.8293,255.3072,0,U,54127,999,18133,.25558634E-3,.115E-5,0
ONEWEB-0510,2022-138R,2026-07-21T14:25:56.819712,13.20771623,.00018649,87.9178,267.5784,85.8039,274.3307,0,U,54128,999,18382,.1381849E-3,.69E-6,0
ONEWEB-0511,2022-138S,2026-07-21T06:46:17.431680,13.19723749,.00017886,87.9189,298.1805,105.1538,254.9792,0,U,54129,999,18133,.54685877E-4,.35E-6,0
ONEWEB-0512,2022-138T,2026-07-21T12:02:26.264832,13.19724034,.00020077,87.9183,298.1396,110.3728,249.7620,0,U,54130,999,18133,.1687561E-3,.81E-6,0
ONEWEB-0513,2022-138U,2026-07-21T08:11:56.318784,13.20269982,.00018604,87.9189,298.1114,127.2112,232.9192,0,U,54131,999,18122,.7685488E-5,.16E-6,0
ONEWEB-0514,2022-138V,2026-07-21T06:57:39.815424,13.19724865,.00019636,87.9189,298.1782,96.5629,263.5728,0,U,54132,999,18132,.29435347E-3,.131E-5,0
ONEWEB-0515,2022-138W,2026-07-21T05:01:07.029696,13.20772290,.00026451,87.9182,267.6527,81.5825,278.5608,0,U,54133,999,18379,.22881889E-3,.106E-5,0
ONEWEB-0516,2022-138X,2026-07-21T11:48:48.058560,13.19724062,.00021995,87.9186,298.1417,101.5397,258.5983,0,U,54134,999,18135,.15001645E-4,.19E-6,0
ONEWEB-0517,2022-138Y,2026-07-21T07:40:52.711392,13.19726488,.00017016,87.9189,298.1709,100.4341,259.6984,0,U,54135,999,18133,.50376568E-4,.33E-6,0
ONEWEB-0518,2022-138Z,2026-07-21T13:35:42.575136,13.19724641,.00022304,87.9182,298.1289,99.5311,260.6074,0,U,54136,999,18136,-.99409553E-4,-.27E-6,0
ONEWEB-0519,2022-138AA,2026-07-21T06:55:23.128032,13.19724098,.00018137,87.9190,298.1783,99.5666,260.5671,0,U,54137,999,18133,.25725072E-3,.116E-5,0
ONEWEB-0520,2022-138AB,2026-07-21T07:45:25.947072,13.19724830,.00021153,87.9193,298.1720,105.6579,254.4787,0,U,54138,999,18132,.31677999E-4,.26E-6,0
ONEWEB-0521,2022-138AC,2026-07-21T06:44:00.018528,13.19724101,.00018105,87.9195,298.1694,98.4134,261.7204,0,U,54139,999,18126,.1809331E-3,.85E-6,0
